ONEWEB-0683             
1 56719U 23068K   25068.72541930 -.00000046  00000+0 -15535-3 0  9992
2 56719  87.9138 351.6970 0001535  72.5698 287.5600 13.15549704 89057
ONEWEB-0684             
1 56720U 23068L   25068.27700736 -.00000103  00000+0 -30768-3 0  9994
2 56720  87.9113 351.8293 0003200  65.4488 294.6976 13.15549263 88820
ONEWEB-0686             
1 56721U 23068M   25068.59826605  .00000035  00000+0  58489-4 0  9997
2 56721  87.9094 321.4192 0001683  68.6678 291.4633 13.16595211 90585
ONEWEB-0694             
1 56722U 23068N   25068.26103668  .00000069  00000+0  14633-3 0  9998
2 56722  87.9096 321.4045 0001304  73.2776 286.8498 13.16595664 90596
ONEWEB-0696             
1 56723U 23068P   25068.31026949  .00000145  00000+0  35025-3 0  9994
2 56723  87.9140 351.8314 0002118  78.9184 281.2184 13.15550658 88245
ONEWEB-0703             
1 56724U 23068Q   25068.31978915  .00000164  00000+0  40101-3 0  9996
2 56724  87.9122 351.8444 0002866  92.0952 268.0506 13.15550182 88131
ONEWEB-0721             
1 56725U 23068R   25068.51002817  .00000019  00000+0  10223-4 0  9990
2 56725  86.6755 233.5789 0001578  99.3626 260.7686 13.22426773 96521
ONEWEB-0015             
1 61594U 24188A   25068.75002315  .00000016  00000+0  00000+0 0  9997
2 61594  87.3768 114.4708 0007772  95.0818 308.6063 13.73141271 21576
